[{"OBJECT_NAME":"ONEWEB-0627","OBJECT_ID":"2023-004AE","EPOCH":"2025-12-24T04:20:42.019296","MEAN_MOTION":13.17648446,"ECCENTRICITY":0.00019881,"INCLINATION":87.9101,"RA_OF_ASC_NODE":40.6755,"ARG_OF_PERICENTER":116.3926,"MEAN_ANOMALY":243.741,"EPHEMERIS_TYPE":0,"CLASSIFICATION_TYPE":"U","NORAD_CAT_ID":55168,"ELEMENT_SET_NO":999,"REV_AT_EPOCH":14453,"BSTAR":-8.4653432e-5,"MEAN_MOTION_DOT":-2.0e-7,"MEAN_MOTION_DDOT":0},{"OBJECT_NAME":"ONEWEB-0628","OBJECT_ID":"2023-004AF","EPOCH":"2025-12-24T03:15:33.214176","MEAN_MOTION":13.12429384,"ECCENTRICITY":0.00021633,"INCLINATION":87.8932,"RA_OF_ASC_NODE":25.42,"ARG_OF_PERICENTER":110.8986,"MEAN_ANOMALY":249.2374,"EPHEMERIS_TYPE":0,"CLASSIFICATION_TYPE":"U","NORAD_CAT_ID":55169,"ELEMENT_SET_NO":999,"REV_AT_EPOCH":14507,"BSTAR":0.0063645383,"MEAN_MOTION_DOT":2.302e-5,"MEAN_MOTION_DDOT":0},{"OBJECT_NAME":"ONEWEB-0629","OBJECT_ID":"2023-004AG","EPOCH":"2025-12-23T20:28:03.304128","MEAN_MOTION":13.1764623,"ECCENTRICITY":0.0002143,"INCLINATION":87.9098,"RA_OF_ASC_NODE":40.7378,"ARG_OF_PERICENTER":97.4492,"MEAN_ANOMALY":262.6883,"EPHEMERIS_TYPE":0,"CLASSIFICATION_TYPE":"U","NORAD_CAT_ID":55170,"ELEMENT_SET_NO":999,"REV_AT_EPOCH":14449,"BSTAR":-0.0012116,"MEAN_MOTION_DOT":-4.57e-6,"MEAN_MOTION_DDOT":0},{"OBJECT_NAME":"ONEWEB-0631","OBJECT_ID":"2023-004AH","EPOCH":"2025-12-24T01:17:49.247808","MEAN_MOTION":13.18687874,"ECCENTRICITY":0.00012757,"INCLINATION":87.9178,"RA_OF_ASC_NODE":10.2122,"ARG_OF_PERICENTER":97.8146,"MEAN_ANOMALY":262.3131,"EPHEMERIS_TYPE":0,"CLASSIFICATION_TYPE":"U","NORAD_CAT_ID":55171,"ELEMENT_SET_NO":999,"REV_AT_EPOCH":14659,"BSTAR":0.00022101899,"MEAN_MOTION_DOT":1.0e-6,"MEAN_MOTION_DDOT":0},{"OBJECT_NAME":"ONEWEB-0709","OBJECT_ID":"2023-004AJ","EPOCH":"2025-12-24T04:18:32.291424","MEAN_MOTION":13.11413237,"ECCENTRICITY":0.00010087,"INCLINATION":87.8843,"RA_OF_ASC_NODE":55.9348,"ARG_OF_PERICENTER":83.7508,"MEAN_ANOMALY":276.3735,"EPHEMERIS_TYPE":0,"CLASSIFICATION_TYPE":"U","NORAD_CAT_ID":55172,"ELEMENT_SET_NO":999,"REV_AT_EPOCH":14293,"BSTAR":-0.00025962593,"MEAN_MOTION_DOT":-7.9e-7,"MEAN_MOTION_DDOT":0},{"OBJECT_NAME":"ONEWEB-0710","OBJECT_ID":"2023-004AK","EPOCH":"2025-12-24T04:06:07.134624","MEAN_MOTION":13.17648356,"ECCENTRICITY":0.00017913,"INCLINATION":87.9099,"RA_OF_ASC_NODE":40.6689,"ARG_OF_PERICENTER":104.6207,"MEAN_ANOMALY":255.5124,"EPHEMERIS_TYPE":0,"CLASSIFICATION_TYPE":"U","NORAD_CAT_ID":55173,"ELEMENT_SET_NO":999,"REV_AT_EPOCH":14453,"BSTAR":1.7025047e-5,"MEAN_MOTION_DOT":1.9e-7,"MEAN_MOTION_DDOT":0},{"OBJECT_NAME":"ONEWEB-0711","OBJECT_ID":"2023-004AL","EPOCH":"2025-12-24T03:37:05.060064","MEAN_MOTION":13.11418875,"ECCENTRICITY":0.00020911,"INCLINATION":87.8851,"RA_OF_ASC_NODE":55.9152,"ARG_OF_PERICENTER":124.0804,"MEAN_ANOMALY":236.0523,"EPHEMERIS_TYPE":0,"CLASSIFICATION_TYPE":"U","NORAD_CAT_ID":55174,"ELEMENT_SET_NO":999,"REV_AT_EPOCH":14289,"BSTAR":0.0012487519,"MEAN_MOTION_DOT":4.55e-6,"MEAN_MOTION_DDOT":0},{"OBJECT_NAME":"ONEWEB-0713","OBJECT_ID":"2023-004AM","EPOCH":"2025-12-24T04:03:54.393120","MEAN_MOTION":13.11414752,"ECCENTRICITY":0.00019131,"INCLINATION":87.8849,"RA_OF_ASC_NODE":55.9134,"ARG_OF_PERICENTER":115.0933,"MEAN_ANOMALY":245.0394,"EPHEMERIS_TYPE":0,"CLASSIFICATION_TYPE":"U","NORAD_CAT_ID":55175,"ELEMENT_SET_NO":999,"REV_AT_EPOCH":14288,"BSTAR":0.00054570862,"MEAN_MOTION_DOT":2.06e-6,"MEAN_MOTION_DDOT":0},{"OBJECT_NAME":"ONEWEB-0715","OBJECT_ID":"2023-004AN","EPOCH":"2025-12-24T03:56:34.964448","MEAN_MOTION":13.11414563,"ECCENTRICITY":0.00010412,"INCLINATION":87.8849,"RA_OF_ASC_NODE":55.9152,"ARG_OF_PERICENTER":107.4771,"MEAN_ANOMALY":252.647,"EPHEMERIS_TYPE":0,"CLASSIFICATION_TYPE":"U","NORAD_CAT_ID":55176,"ELEMENT_SET_NO":999,"REV_AT_EPOCH":14292,"BSTAR":0.0013266262,"MEAN_MOTION_DOT":4.83e-6,"MEAN_MOTION_DDOT":0},{"OBJECT_NAME":"ONEWEB-0716","OBJECT_ID":"2023-004AP","EPOCH":"2025-12-24T03:56:23.105184","MEAN_MOTION":13.17650215,"ECCENTRICITY":0.00019353,"INCLINATION":87.9098,"RA_OF_ASC_NODE":40.6701,"ARG_OF_PERICENTER":92.1576,"MEAN_ANOMALY":267.9777,"EPHEMERIS_TYPE":0,"CLASSIFICATION_TYPE":"U","NORAD_CAT_ID":55177,"ELEMENT_SET_NO":999,"REV_AT_EPOCH":14453,"BSTAR":1.9692435e-5,"MEAN_MOTION_DOT":2.1e-7,"MEAN_MOTION_DDOT":0},{"OBJECT_NAME":"ONEWEB-0717","OBJECT_ID":"2023-004AQ","EPOCH":"2025-12-24T03:32:04.542720","MEAN_MOTION":13.17650799,"ECCENTRICITY":0.00018199,"INCLINATION":87.9107,"RA_OF_ASC_NODE":40.6458,"ARG_OF_PERICENTER":121.9594,"MEAN_ANOMALY":238.1714,"EPHEMERIS_TYPE":0,"CLASSIFICATION_TYPE":"U","NORAD_CAT_ID":55178,"ELEMENT_SET_NO":999,"REV_AT_EPOCH":14458,"BSTAR":0.00011910772,"MEAN_MOTION_DOT":5.9e-7,"MEAN_MOTION_DDOT":0},{"OBJECT_NAME":"ONEWEB-0719","OBJECT_ID":"2023-004AR","EPOCH":"2025-12-24T01:57:19.950624","MEAN_MOTION":13.17648056,"ECCENTRICITY":0.00020136,"INCLINATION":87.9108,"RA_OF_ASC_NODE":40.6409,"ARG_OF_PERICENTER":96.5164,"MEAN_ANOMALY":263.6197,"EPHEMERIS_TYPE":0,"CLASSIFICATION_TYPE":"U","NORAD_CAT_ID":55179,"ELEMENT_SET_NO":999,"REV_AT_EPOCH":14452,"BSTAR":4.7357106e-5,"MEAN_MOTION_DOT":3.1e-7,"MEAN_MOTION_DDOT":0},{"OBJECT_NAME":"ONEWEB-0530","OBJECT_ID":"2023-029A","EPOCH":"2025-12-23T20:45:35.521344","MEAN_MOTION":13.20770481,"ECCENTRICITY":0.0001955,"INCLINATION":87.9213,"RA_OF_ASC_NODE":309.4495,"ARG_OF_PERICENTER":93.4,"MEAN_ANOMALY":266.7357,"EPHEMERIS_TYPE":0,"CLASSIFICATION_TYPE":"U","NORAD_CAT_ID":55796,"ELEMENT_SET_NO":999,"REV_AT_EPOCH":13800,"BSTAR":-0.00011109,"MEAN_MOTION_DOT":-3.2e-7,"MEAN_MOTION_DDOT":0},{"OBJECT_NAME":"ONEWEB-0534","OBJECT_ID":"2023-029B","EPOCH":"2025-12-24T03:43:46.905600","MEAN_MOTION":13.20770169,"ECCENTRICITY":0.00019201,"INCLINATION":87.921,"RA_OF_ASC_NODE":309.3921,"ARG_OF_PERICENTER":77.4498,"MEAN_ANOMALY":282.685,"EPHEMERIS_TYPE":0,"CLASSIFICATION_TYPE":"U","NORAD_CAT_ID":55797,"ELEMENT_SET_NO":999,"REV_AT_EPOCH":13804,"BSTAR":-7.3038547e-5,"MEAN_MOTION_DOT":-1.7e-7,"MEAN_MOTION_DDOT":0},{"OBJECT_NAME":"ONEWEB-0556","OBJECT_ID":"2023-029C","EPOCH":"2025-12-24T05:41:56.813568","MEAN_MOTION":13.20773961,"ECCENTRICITY":0.00027726,"INCLINATION":87.9213,"RA_OF_ASC_NODE":309.3758,"ARG_OF_PERICENTER":81.8688,"MEAN_ANOMALY":278.276,"EPHEMERIS_TYPE":0,"CLASSIFICATION_TYPE":"U","NORAD_CAT_ID":55798,"ELEMENT_SET_NO":999,"REV_AT_EPOCH":13805,"BSTAR":5.8003697e-5,"MEAN_MOTION_DOT":3.7e-7,"MEAN_MOTION_DDOT":0},{"OBJECT_NAME":"ONEWEB-0562","OBJECT_ID":"2023-029D","EPOCH":"2025-12-24T03:34:41.858112","MEAN_MOTION":13.20771568,"ECCENTRICITY":0.0002408,"INCLINATION":87.9206,"RA_OF_ASC_NODE":309.3756,"ARG_OF_PERICENTER":97.8888,"MEAN_ANOMALY":262.2519,"EPHEMERIS_TYPE":0,"CLASSIFICATION_TYPE":"U","NORAD_CAT_ID":55799,"ELEMENT_SET_NO":999,"REV_AT_EPOCH":13804,"BSTAR":0.00034666762,"MEAN_MOTION_DOT":1.54e-6,"MEAN_MOTION_DDOT":0},{"OBJECT_NAME":"ONEWEB-0563","OBJECT_ID":"2023-029E","EPOCH":"2025-12-24T07:03:47.000736","MEAN_MOTION":13.20769609,"ECCENTRICITY":0.0002001,"INCLINATION":87.9213,"RA_OF_ASC_NODE":309.3746,"ARG_OF_PERICENTER":74.4702,"MEAN_ANOMALY":285.6652,"EPHEMERIS_TYPE":0,"CLASSIFICATION_TYPE":"U","NORAD_CAT_ID":55800,"ELEMENT_SET_NO":999,"REV_AT_EPOCH":13805,"BSTAR":-3.085319e-6,"MEAN_MOTION_DOT":1.2e-7,"MEAN_MOTION_DDOT":0}]
