ONEWEB-0627             
1 55168U 23004AE  25358.18104189 -.00000020  00000+0 -84653-4 0  9992
2 55168  87.9101  40.6755 0001988 116.3926 243.7410 13.17648446144536
ONEWEB-0628             
1 55169U 23004AF  25358.13580109  .00002302  00000+0  63645-2 0  9997
2 55169  87.8932  25.4200 0002163 110.8986 249.2374 13.12429384145078
ONEWEB-0629             
1 55170U 23004AG  25357.85281602 -.00000457  00000+0 -12116-2 0  9991
2 55170  87.9098  40.7378 0002143  97.4492 262.6883 13.17646230144495
ONEWEB-0631             
1 55171U 23004AH  25358.05404222  .00000100  00000+0  22102-3 0  9990
2 55171  87.9178  10.2122 0001275  97.8146 262.3131 13.18687874146595
ONEWEB-0709             
1 55172U 23004AJ  25358.17954041 -.00000079  00000+0 -25963-3 0  9998
2 55172  87.8843  55.9348 0001008  83.7508 276.3735 13.11413237142932
ONEWEB-0710             
1 55173U 23004AK  25358.17091591  .00000019  00000+0  17025-4 0  9994
2 55173  87.9099  40.6689 0001791 104.6207 255.5124 13.17648356144531
ONEWEB-0711             
1 55174U 23004AL  25358.15075301  .00000455  00000+0  12488-2 0  9994
2 55174  87.8851  55.9152 0002091 124.0804 236.0523 13.11418875142893
ONEWEB-0713             
1 55175U 23004AM  25358.16937955  .00000206  00000+0  54571-3 0  9992
2 55175  87.8849  55.9134 0001913 115.0933 245.0394 13.11414752142881
ONEWEB-0715             
1 55176U 23004AN  25358.16429357  .00000483  00000+0  13266-2 0  9997
2 55176  87.8849  55.9152 0001041 107.4771 252.6470 13.11414563142923
ONEWEB-0716             
1 55177U 23004AP  25358.16415631  .00000021  00000+0  19692-4 0  9997
2 55177  87.9098  40.6701 0001935  92.1576 267.9777 13.17650215144537
ONEWEB-0717             
1 55178U 23004AQ  25358.14727480  .00000059  00000+0  11911-3 0  9990
2 55178  87.9107  40.6458 0001819 121.9594 238.1714 13.17650799144583
ONEWEB-0719             
1 55179U 23004AR  25358.08148091  .00000031  00000+0  47357-4 0  9993
2 55179  87.9108  40.6409 0002013  96.5164 263.6197 13.17648056144523
ONEWEB-0530             
1 55796U 23029A   25357.86499446 -.00000032  00000+0 -11109-3 0  9991
2 55796  87.9213 309.4495 0001955  93.4000 266.7357 13.20770481138005
ONEWEB-0534             
1 55797U 23029B   25358.15540400 -.00000017  00000+0 -73039-4 0  9996
2 55797  87.9210 309.3921 0001920  77.4498 282.6850 13.20770169138043
ONEWEB-0556             
1 55798U 23029C   25358.23746312  .00000037  00000+0  58004-4 0  9991
2 55798  87.9213 309.3758 0002772  81.8688 278.2760 13.20773961138056
ONEWEB-0562             
1 55799U 23029D   25358.14909558  .00000154  00000+0  34667-3 0  9993
2 55799  87.9206 309.3756 0002408  97.8888 262.2519 13.20771568138047
ONEWEB-0563             
1 55800U 23029E   25358.29429399  .00000012  00000+0 -30853-5 0  9991
2 55800  87.9213 309.3746 0002001  74.4702 285.6652 13.20769609138053
